     2              NAVIGATION DATA                         RINEX VERSION / TYPE
CCRINEXN V1.6.0 UX  CDDIS               01-SEP-08 02:51     PGM / RUN BY / DATE 
IGS BROADCAST EPHEMERIS FILE                                COMMENT             
    0.3707-307 -0.1977E+01  0.4858-269  0.4854-269          ION ALPHA           
    0.2038-311  0.3815-307 -0.5509E-41 -0.5512E-41          ION BETA            
                                                            END OF HEADER       
 9 08  8 31  8  0  0.0 0.125961378217E-04 0.181898940355E-11 0.000000000000E+00
    0.330000000000E+02 0.825312500000E+02 0.450768776329E-08-0.157809614903E+01
    0.459700822830E-05 0.201677605510E-01 0.391155481338E-05 0.515366161919E+04
    0.288000000000E+05 0.217929482460E-06 0.119030254472E+01 0.450760126114E-06
    0.972396535853E+00 0.310718750000E+03 0.143767969953E+01-0.820891336276E-08
    0.239652839646E-09 0.100000000000E+01 0.149500000000E+04 0.000000000000E+00
    0.200000000000E+01 0.000000000000E+00-0.558793544769E-08 0.330000000000E+02
    0.274080000000E+05 0.400000000000E+01 0.000000000000E+00 0.000000000000E+00
10 08  8 31  8  0  0.0-0.437628477812E-05-0.454747350886E-12 0.000000000000E+00
    0.900000000000E+02-0.763750000000E+02 0.487341728311E-08 0.212583051381E+01
   -0.388175249100E-05 0.799420615658E-02 0.699050724506E-05 0.515369175148E+04
    0.288000000000E+05-0.182539224625E-06-0.842369433577E+00-0.372529029846E-07
    0.962127323459E+00 0.247750000000E+03 0.558286809812E+00-0.824998650219E-08
   -0.482877256633E-09 0.100000000000E+01 0.149500000000E+04 0.000000000000E+00
    0.280000000000E+01 0.000000000000E+00-0.232830643654E-08 0.900000000000E+02
    0.278400000000E+05 0.000000000000E+00 0.000000000000E+00 0.000000000000E+00
11 08  8 31  8  0  0.0 0.207195989788E-04-0.682121026330E-12 0.000000000000E+00
    0.820000000000E+02 0.769062500000E+02 0.649491339636E-08-0.765462468173E+00
    0.414066016674E-05 0.839709630236E-02 0.544078648090E-05 0.515364143181E+04
    0.288000000000E+05 0.193715095520E-06-0.211203052376E+01 0.100582838059E-06
    0.890518661128E+00 0.235062500000E+03 0.606548006188E+00-0.924252784553E-08
    0.595381942905E-09 0.100000000000E+01 0.149500000000E+04 0.000000000000E+00
    0.280000000000E+01 0.000000000000E+00-0.116415321827E-07 0.820000000000E+02
    0.216000000000E+05 0.000000000000E+00 0.000000000000E+00 0.000000000000E+00
12 08  8 31  8  0  0.0-0.352750997990E-03 0.136424205266E-11 0.000000000000E+00
    0.300000000000E+02-0.100281250000E+03 0.453197448921E-08-0.335030596466E+00
   -0.511109828949E-05 0.318449246697E-02 0.557675957680E-05 0.515353671074E+04
    0.288000000000E+05-0.689178705216E-07 0.227682085619E+01-0.150874257088E-06
    0.964682555655E+00 0.277375000000E+03-0.861730184441E+00-0.826177270742E-08
   -0.512521348571E-09 0.100000000000E+01 0.149500000000E+04 0.000000000000E+00
    0.200000000000E+01 0.000000000000E+00-0.116415321827E-07 0.300000000000E+02
    0.216180000000E+05 0.400000000000E+01 0.000000000000E+00 0.000000000000E+00
13 08  8 31  8  0  0.0 0.269528944045E-03 0.125055521494E-11 0.000000000000E+00
    0.570000000000E+02 0.540312500000E+02 0.348157359294E-08 0.177099522936E+01
    0.260397791862E-05 0.372912024613E-02 0.136680901051E-04 0.515359025955E+04
    0.288000000000E+05-0.745058059692E-08 0.228833793332E+00-0.745058059692E-07
    0.995792772572E+00 0.130625000000E+03 0.154253327176E+01-0.742245203206E-08
    0.396445084958E-10 0.100000000000E+01 0.149500000000E+04 0.000000000000E+00
    0.200000000000E+01 0.000000000000E+00-0.111758708954E-07 0.570000000000E+02
    0.216000000000E+05 0.000000000000E+00 0.000000000000E+00 0.000000000000E+00
14 08  8 31  8  0  0.0-0.225603580475E-03 0.466116034659E-11 0.000000000000E+00
    0.520000000000E+02 0.472812500000E+02 0.364943772802E-08 0.155798404783E+01
    0.248290598392E-05 0.410209747497E-02 0.129155814648E-04 0.515373535347E+04
    0.288000000000E+05-0.143423676491E-06 0.210982545710E+00 0.111758708954E-07
    0.989477725342E+00 0.148250000000E+03-0.218690408277E+01-0.757995859284E-08
    0.471448209139E-10 0.100000000000E+01 0.149500000000E+04 0.000000000000E+00
    0.240000000000E+01 0.000000000000E+00-0.884756445885E-08 0.520000000000E+02
    0.216060000000E+05 0.400000000000E+01 0.000000000000E+00 0.000000000000E+00
15 08  8 31  8  0  0.0-0.169213395566E-03-0.648014975013E-11 0.000000000000E+00
    0.680000000000E+02 0.290312500000E+02 0.447125767440E-08 0.244101021749E+01
    0.165961682796E-05 0.827616662718E-03 0.127535313368E-04 0.515369860268E+04
    0.288000000000E+05 0.707805156708E-07 0.166980863537E+00-0.670552253723E-07
    0.957776828918E+00 0.128937500000E+03-0.120941653641E+01-0.794354516626E-08
   -0.453590322429E-10 0.100000000000E+01 0.149500000000E+04 0.000000000000E+00
    0.280000000000E+01 0.000000000000E+00-0.977888703346E-08 0.680000000000E+02
    0.216180000000E+05 0.400000000000E+01 0.000000000000E+00 0.000000000000E+00
16 08  8 31  8  0  0.0 0.109447166324E-03-0.193267624127E-11 0.000000000000E+00
    0.300000000000E+01-0.980937500000E+02 0.446732893932E-08-0.292624827719E+01
   -0.509805977345E-05 0.474155554548E-02 0.647455453873E-05 0.515366148186E+04
    0.288000000000E+05-0.335276126862E-07 0.229334990236E+01 0.689178705215E-07
    0.966326107544E+00 0.258562500000E+03-0.409100868625E+00-0.815605401810E-08
   -0.526807657939E-09 0.100000000000E+01 0.149500000000E+04 0.000000000000E+00
    0.240000000000E+01 0.000000000000E+00-0.977888703346E-08 0.300000000000E+01
    0.277860000000E+05 0.400000000000E+01 0.000000000000E+00 0.000000000000E+00
17 08  8 31  8  0  0.0 0.388664193451E-04 0.000000000000E+00 0.000000000000E+00
    0.530000000000E+02-0.101562500000E+02 0.406552648835E-08 0.216385323516E+01
   -0.424683094025E-06 0.378790439572E-02 0.135060399771E-04 0.515359743309E+04
    0.288000000000E+05-0.689178705216E-07-0.294886795895E+01 0.149011611938E-07
    0.960121678865E+00 0.113906250000E+03-0.278123526740E+01-0.781032533140E-08
    0.239652839646E-09 0.100000000000E+01 0.149500000000E+04 0.000000000000E+00
    0.200000000000E+01 0.000000000000E+00-0.102445483208E-07 0.530000000000E+02
    0.216000000000E+05 0.000000000000E+00 0.000000000000E+00 0.000000000000E+00
19 08  8 31  8  0  0.0 0.351336784661E-04 0.227373675443E-12 0.000000000000E+00
    0.350000000000E+02 0.191250000000E+02 0.414302971667E-08 0.167553571242E+01
    0.101700425148E-05 0.489662750624E-02 0.131148844957E-04 0.515373648262E+04
    0.288000000000E+05 0.167638063431E-07-0.289207789458E+01 0.117346644402E-06
    0.957869655459E+00 0.123218750000E+03-0.511907631213E+00-0.778925302508E-08
    0.266796827444E-09 0.100000000000E+01 0.149500000000E+04 0.000000000000E+00
    0.200000000000E+01 0.000000000000E+00-0.144354999065E-07 0.350000000000E+02
    0.216000000000E+05 0.000000000000E+00 0.000000000000E+00 0.000000000000E+00
21 08  8 31  8  0  0.0 0.524362549186E-04-0.147792889038E-11 0.000000000000E+00
    0.250000000000E+02 0.534687500000E+02 0.543594071446E-08-0.156754958200E+01
    0.253133475781E-05 0.142576685175E-01 0.397115945816E-05 0.515368801498E+04
    0.288000000000E+05 0.132247805595E-06-0.189174675368E+01-0.141561031342E-06
    0.935285368995E+00 0.284468750000E+03-0.268197689014E+01-0.860928718280E-08
    0.636097924603E-09 0.100000000000E+01 0.149500000000E+04 0.000000000000E+00
    0.200000000000E+01 0.000000000000E+00-0.116415321827E-07 0.250000000000E+02
    0.216180000000E+05 0.400000000000E+01 0.000000000000E+00 0.000000000000E+00
22 08  8 31  8  0  0.0 0.211148988456E-03-0.113686837722E-12 0.000000000000E+00
    0.900000000000E+02-0.721875000000E+02 0.513771400641E-08 0.229466402704E+01
   -0.374391674995E-05 0.509890657850E-02 0.716745853424E-05 0.515366593361E+04
    0.288000000000E+05-0.558793544769E-08-0.826578965006E+00-0.819563865662E-07
    0.943863961574E+00 0.234500000000E+03-0.183339302299E+01-0.833356141200E-08
   -0.488948938114E-09 0.100000000000E+01 0.149500000000E+04 0.000000000000E+00
    0.485000000000E+01 0.000000000000E+00-0.181607902050E-07 0.900000000000E+02
    0.216060000000E+05 0.400000000000E+01 0.000000000000E+00 0.000000000000E+00
23 08  8 31  8  0  0.0 0.371255911887E-03 0.147792889038E-11 0.000000000000E+00
    0.880000000000E+02 0.524687500000E+02 0.404838291711E-08 0.100048702653E+01
    0.263564288616E-05 0.586397724692E-02 0.129789113998E-04 0.515370712662E+04
    0.288000000000E+05 0.670552253723E-07 0.183198605129E+00 0.372529029846E-08
    0.971579832577E+00 0.129968750000E+03 0.281505392060E+01-0.777139513837E-08
   -0.664313385605E-10 0.100000000000E+01 0.149500000000E+04 0.000000000000E+00
    0.200000000000E+01 0.000000000000E+00-0.200234353542E-07 0.880000000000E+02
    0.216000000000E+05 0.000000000000E+00 0.000000000000E+00 0.000000000000E+00
25 08  8 31  8  0  0.0-0.235499814153E-03 0.574118530494E-10 0.000000000000E+00
    0.650000000000E+02 0.906562500000E+02 0.464412201775E-08-0.240238890516E+01
    0.467896461487E-05 0.115942051634E-01 0.449456274509E-05 0.515369219971E+04
    0.288000000000E+05 0.147148966789E-06 0.113122633438E+01 0.122934579849E-06
    0.965853719593E+00 0.297062500000E+03-0.124871126796E+01-0.817569769348E-08
    0.296083761649E-09 0.000000000000E+00 0.149500000000E+04 0.000000000000E+00
    0.570000000000E+01 0.630000000000E+02-0.745058059692E-08 0.650000000000E+02
    0.216000000000E+05 0.400000000000E+01 0.000000000000E+00 0.000000000000E+00
